STARLINK-2646           
1 48642U 21044E   26068.41951628  .00009762  00000+0  34111-3 0  9999
2 48642  53.1580 115.1995 0001329  78.8022 281.3129 15.30215302263785
STARLINK-30494          
1 57970U 23151G   26068.36049035 -.00001272  00000+0 -35691-4 0  9993
2 57970  43.0027 192.4566 0001155 241.5536 118.5200 15.28417441137406
